STARLINK-36901          
1 67974U 26038P   26064.58335648 -.01466490  68058-3 -26104-2 0  9999
2 67974  97.2744  74.5487 0001123  87.1163 185.3581 16.01925280  2531
STARLINK-36883          
1 67975U 26038Q   26064.58335648 -.01458742  67915-3 -24981-2 0  9993
2 67975  97.2738  74.5545 0001132  84.3288 201.3190 16.02589752  2533
STARLINK-36880          
1 67976U 26038R   26064.58335648 -.01465528  68189-3 -25681-2 0  9996
2 67976  97.2741  74.5511 0001134  93.5677 184.2513 16.02195808  2530
STARLINK-36904          
1 67977U 26038S   26064.58335648 -.01454822  67469-3 -25111-2 0  9990
2 67977  97.2737  74.5530 0001199  83.7952 199.2330 16.02453548  2536
STARLINK-36364          
1 67978U 26038T   26064.58335648 -.01448830  67308-3 -24356-2 0  9995
2 67978  97.2733  74.5570 0001065 105.9657 185.8055 16.02904966  2538
STARLINK-36359          
1 67979U 26038U   26064.58335648 -.01457827  67608-3 -25387-2 0  9990
2 67979  97.2738  74.5515 0001082 100.9592 179.0736 16.02302122  2532
STARLINK-36882          
1 67980U 26038V   26064.58335648 -.01443741  66750-3 -24488-2 0  9990
2 67980  97.2734  74.5556 0001125  89.6086 199.2526 16.02751255  2530
STARLINK-36874          
1 67981U 26038W   26064.58335648 -.01423160  65177-3 -23800-2 0  9993
2 67981  97.2734  74.5578 0001097  92.0988 201.8485 16.02990104  2534
STARLINK-36879          
1 67982U 26038X   26064.58335648 -.01451238  67707-3 -24057-2 0  9997
2 67982  97.2731  74.5589 0001021  82.8539 213.6958 16.03143894  2533
STARLINK-36867          
1 67983U 26038Y   26064.58335648 -.01429156  66008-3 -23328-2 0  9995
2 67983  97.2730  74.5614 0001077  82.6958 219.1774 16.03402508  2533
STARLINK-36266          
1 67984U 26038Z   26064.58335648 -.01421343  65244-3 -23369-2 0  9992
2 67984  97.2731  74.5604 0001125  76.8547 222.6129 16.03278528  2500
STARLINK-36802          
1 67985U 26038AA  26064.58335648 -.01438502  66904-3 -23320-2 0  9999
2 67985  97.2728  74.5621 0001081 110.7801 193.2917 16.03520108  2533
STARLINK-36535          
1 67986U 26039A   26064.58335648 -.01496384  65925-3 -34717-2 0  9997
2 67986  42.9979  80.4059 0001733 272.2359 358.0519 15.96284654  2214
STARLINK-36744          
1 67987U 26039B   26064.58335648 -.01476777  64423-3 -34040-2 0  9993
2 67987  42.9978  80.4018 0001784 269.4950   2.3068 15.96400215  2211
STARLINK-36734          
1 67988U 26039C   26064.58335648 -.01473213  64234-3 -33685-2 0  9990
2 67988  42.9980  80.3970 0001795 271.0952   2.5562 15.96546466  2214
STARLINK-36957          
1 67989U 26039D   26064.58335648 -.01470914  64138-3 -33387-2 0  9998
2 67989  42.9978  80.3929 0001775 272.1047   3.0224 15.96679414  2212
